NORAD_CAT_ID,OBJECT_NAME,OBJECT_TYPE,EPOCH,MEAN_MOTION,ECCENTRICITY,INCLINATION,RA_OF_ASC_NODE,ARG_OF_PERICENTER,MEAN_ANOMALY,BSTAR,MEAN_MOTION_DOT,MEAN_MOTION_DDOT,TLE_LINE0,TLE_LINE1,TLE_LINE2,SEMIMAJOR_AXIS,PERIOD,APOGEE,PERIGEE,DECAYED
54074.0,STARLINK-5192,PAYLOAD,2024-06-13 14:26:20,15.08928791,0.0001759,53.2179,310.2692,69.2696,290.8484,-0.0012671,-0.00020447,0.0,0 STARLINK-5192,1 54074U 22136Z   24165.60162619 -.00020447  00000-0 -12671-2 0  9991,2 54074  53.2179 310.2692 0001759  69.2696 290.8484 15.08928791 91120,6917.609,95.432,540.691,538.257,0.0
54074.0,STARLINK-5192,PAYLOAD,2024-06-13 16:01:47,15.08817782,0.000124,53.2185,309.9719,99.9683,260.145,0.00042106,6.416e-05,0.0,0 STARLINK-5192,1 54074U 22136Z   24165.66790897  .00006416  00000-0  42106-3 0  9997,2 54074  53.2185 309.9719 0001240  99.9683 260.1450 15.08817782 91134,6917.948,95.439,540.671,538.955,0.0
54074.0,STARLINK-5192,PAYLOAD,2024-06-14 14:17:10,15.08836311,0.0001519,53.2202,305.8094,98.8354,261.281,6.9281e-05,8.15e-06,0.0,0 STARLINK-5192,1 54074U 22136Z   24166.59526238  .00000815  00000-0  69281-4 0  9997,2 54074  53.2202 305.8094 0001519  98.8354 261.2810 15.08836311 91273,6917.892,95.438,540.807,538.706,0.0
54074.0,STARLINK-5192,PAYLOAD,2024-06-14 15:52:33,15.08837347,0.000139,53.2191,305.5121,95.3235,264.7915,6.5476e-05,7.54e-06,0.0,0 STARLINK-5192,1 54074U 22136Z   24166.66150156  .00000754  00000-0  65476-4 0  9991,2 54074  53.2191 305.5121 0001390  95.3235 264.7915 15.08837347 91280,6917.888,95.438,540.715,538.792,0.0
54074.0,STARLINK-5192,PAYLOAD,2024-06-15 14:07:57,15.0884265,0.0001333,53.2187,301.3492,94.6054,265.509,3.3753e-05,2.49e-06,0.0,0 STARLINK-5192,1 54074U 22136Z   24167.58885922  .00000249  00000-0  33753-4 0  9991,2 54074  53.2187 301.3492 0001333  94.6054 265.5090 15.08842650 91420,6917.872,95.437,540.659,538.815,0.0
54074.0,STARLINK-5192,PAYLOAD,2024-06-15 18:54:07,15.08839679,0.0001282,53.2195,300.4582,94.5079,265.6059,1.8249e-05,3e-08,0.0,0 STARLINK-5192,1 54074U 22136Z   24167.78758146  .00000003  00000-0  18249-4 0  9991,2 54074  53.2195 300.4582 0001282  94.5079 265.6059 15.08839679 91454,6917.881,95.438,540.633,538.859,0.0
54074.0,STARLINK-5192,PAYLOAD,2024-06-16 13:58:47,15.088144,0.0001405,53.2186,296.8891,96.1236,263.9916,-8.3737e-05,-1.619e-05,0.0,0 STARLINK-5192,1 54074U 22136Z   24168.58249044 -.00001619  00000-0 -83737-4 0  9992,2 54074  53.2186 296.8891 0001405  96.1236 263.9916 15.08814400 91576,6917.959,95.439,540.796,538.852,0.0
54074.0,STARLINK-5192,PAYLOAD,2024-06-16 18:44:55,15.08828856,0.0001221,53.2177,295.9946,82.7809,277.3322,-5.3607e-06,-3.73e-06,0.0,0 STARLINK-5192,1 54074U 22136Z   24168.78120178 -.00000373  00000-0 -53607-5 0  9990,2 54074  53.2177 295.9946 0001221  82.7809 277.3322 15.08828856 91604,6917.914,95.438,540.624,538.935,0.0
54074.0,STARLINK-5192,PAYLOAD,2024-06-17 15:24:55,15.08846522,0.0001335,53.2181,292.1343,101.0988,259.0154,0.0001519,2.131e-05,0.0,0 STARLINK-5192,1 54074U 22136Z   24169.64230415  .00002131  00000-0  15190-3 0  9997,2 54074  53.2181 292.1343 0001335 101.0988 259.0154 15.08846522 91732,6917.86,95.437,540.649,538.802,0.0
54074.0,STARLINK-5192,PAYLOAD,2024-06-18 00:57:13,15.08855243,0.0001274,53.2184,290.3471,89.5131,270.6007,0.00026469,3.929e-05,0.0,0 STARLINK-5192,1 54074U 22136Z   24170.03973391  .00003929  00000-0  26469-3 0  9996,2 54074  53.2184 290.3471 0001274  89.5131 270.6007 15.08855243 92275,6917.834,95.437,540.58,538.817,0.0
54074.0,STARLINK-5192,PAYLOAD,2024-06-18 13:40:19,15.08833457,0.0001852,53.2182,287.9685,82.593,277.5272,0.00019816,2.866e-05,0.0,0 STARLINK-5192,1 54074U 22136Z   24170.56967372  .00002866  00000-0  19816-3 0  9993,2 54074  53.2182 287.9685 0001852  82.5930 277.5272 15.08833457 92356,6917.9,95.438,541.047,538.484,0.0
54074.0,STARLINK-5192,PAYLOAD,2024-06-18 15:15:42,15.08834743,0.000156,53.2176,287.6716,86.9293,273.1877,0.00019576,2.828e-05,0.0,0 STARLINK-5192,1 54074U 22136Z   24170.63591247  .00002828  00000-0  19576-3 0  9996,2 54074  53.2176 287.6716 0001560  86.9293 273.1877 15.08834743 91886,6917.896,95.438,540.841,538.682,0.0
54074.0,STARLINK-5192,PAYLOAD,2024-06-19 00:48:00,15.088536,0.0001498,53.2182,285.8886,86.4231,273.6932,7.4013e-05,8.91e-06,0.0,0 STARLINK-5192,1 54074U 22136Z   24171.03334241  .00000891  00000-0  74013-4 0  9996,2 54074  53.2182 285.8886 0001498  86.4231 273.6932 15.08853600 92429,6917.839,95.437,540.74,538.668,0.0
54074.0,STARLINK-5192,PAYLOAD,2024-06-19 13:31:07,15.08836155,0.0001385,53.2172,283.5094,89.5733,270.5417,-0.00013528,-2.44e-05,0.0,0 STARLINK-5192,1 54074U 22136Z   24171.56327899 -.00002440  00000-0 -13528-3 0  9992,2 54074  53.2172 283.5094 0001385  89.5733 270.5417 15.08836155 92509,6917.892,95.438,540.715,538.799,0.0
54074.0,STARLINK-5192,PAYLOAD,2024-06-19 15:06:30,15.08837874,0.000136,53.2173,283.212,89.1662,270.9486,-0.00011852,-2.174e-05,0.0,0 STARLINK-5192,1 54074U 22136Z   24171.62951736 -.00002174  00000-0 -11852-3 0  9994,2 54074  53.2173 283.2120 0001360  89.1662 270.9486 15.08837874 92034,6917.887,95.438,540.693,538.811,0.0
54074.0,STARLINK-5192,PAYLOAD,2024-06-20 13:21:53,15.08844271,0.0001551,53.2173,279.0484,85.2309,274.886,7.304e-05,8.75e-06,0.0,0 STARLINK-5192,1 54074U 22136Z   24172.55686549  .00000875  00000-0  73040-4 0  9996,2 54074  53.2173 279.0484 0001551  85.2309 274.8860 15.08844271 92170,6917.867,95.437,540.805,538.659,0.0
54074.0,STARLINK-5192,PAYLOAD,2024-06-20 16:32:39,15.0884988,0.0001313,53.2171,278.4529,77.9862,282.1277,8.1505e-05,1.01e-05,0.0,0 STARLINK-5192,1 54074U 22136Z   24172.68934183  .00001010  00000-0  81505-4 0  9997,2 54074  53.2171 278.4529 0001313  77.9862 282.1277 15.08849880 92679,6917.85,95.437,540.624,538.807,0.0
54074.0,STARLINK-5192,PAYLOAD,2024-06-21 13:12:40,15.0883727,0.0001783,53.2192,274.5867,110.4117,249.7066,0.00012464,1.696e-05,0.0,0 STARLINK-5192,1 54074U 22136Z   24173.55047039  .00001696  00000-0  12464-3 0  9996,2 54074  53.2192 274.5867 0001783 110.4117 249.7066 15.08837270 92801,6917.889,95.438,540.987,538.52,0.0
54074.0,STARLINK-5192,PAYLOAD,2024-06-22 13:03:27,15.08844153,0.0001341,53.2173,270.1264,93.9157,266.1988,4.1599e-05,3.74e-06,0.0,0 STARLINK-5192,1 54074U 22136Z   24174.54406844  .00000374  00000-0  41599-4 0  9993,2 54074  53.2173 270.1264 0001341  93.9157 266.1988 15.08844153 92479,6917.868,95.437,540.66,538.805,0.0
54074.0,STARLINK-5192,PAYLOAD,2024-06-22 16:14:13,15.08845204,0.000145,53.2179,269.5315,107.7194,252.3957,5.1431e-05,5.31e-06,0.0,0 STARLINK-5192,1 54074U 22136Z   24174.67654662  .00000531  00000-0  51431-4 0  9991,2 54074  53.2179 269.5315 0001450 107.7194 252.3957 15.08845204 92976,6917.864,95.437,540.733,538.726,0.0
54074.0,STARLINK-5192,PAYLOAD,2024-06-23 12:54:14,15.08840471,0.0001341,53.2172,265.6656,93.4397,266.6748,0.00010164,1.33e-05,0.0,0 STARLINK-5192,1 54074U 22136Z   24175.53766900  .00001330  00000-0  10164-3 0  9991,2 54074  53.2172 265.6656 0001341  93.4397 266.6748 15.08840471 93102,6917.879,95.438,540.672,538.816,0.0
54074.0,STARLINK-5192,PAYLOAD,2024-06-24 12:45:01,15.08835647,0.0001344,53.2165,261.2034,112.9597,247.1537,4.2011e-05,3.81e-06,0.0,0 STARLINK-5192,1 54074U 22136Z   24176.53127173  .00000381  00000-0  42011-4 0  9997,2 54074  53.2165 261.2034 0001344 112.9597 247.1537 15.08835647 92779,6917.894,95.438,540.688,538.829,0.0
54074.0,STARLINK-5192,PAYLOAD,2024-06-25 12:35:48,15.08838756,0.0001328,53.2167,256.7427,88.9265,271.1879,5.2446e-05,5.47e-06,0.0,0 STARLINK-5192,1 54074U 22136Z   24177.52487239  .00000547  00000-0  52446-4 0  9996,2 54074  53.2167 256.7427 0001328  88.9265 271.1879 15.08838756 92929,6917.884,95.438,540.668,538.83,0.0
54074.0,STARLINK-5192,PAYLOAD,2024-06-26 10:51:12,15.08840777,0.0001353,53.2164,252.5789,85.931,274.1837,0.00016455,2.332e-05,0.0,0 STARLINK-5192,1 54074U 22136Z   24178.45222930  .00002332  00000-0  16455-3 0  9997,2 54074  53.2164 252.5789 0001353  85.9310 274.1837 15.08840777 93549,6917.878,95.438,540.679,538.807,0.0
54074.0,STARLINK-5192,PAYLOAD,2024-06-27 12:17:23,15.08840304,0.0001353,53.2161,247.8234,80.5501,279.5644,8.8011e-05,1.113e-05,0.0,0 STARLINK-5192,1 54074U 22136Z   24179.51207272  .00001113  00000-0  88011-4 0  9991,2 54074  53.2161 247.8234 0001353  80.5501 279.5644 15.08840304 93700,6917.879,95.438,540.68,538.808,0.0
54074.0,STARLINK-5192,PAYLOAD,2024-06-27 21:49:41,15.08845676,0.0001246,53.2157,246.0407,93.8693,266.2442,0.00011344,1.518e-05,0.0,0 STARLINK-5192,1 54074U 22136Z   24179.90950753  .00001518  00000-0  11344-3 0  9996,2 54074  53.2157 246.0407 0001246  93.8693 266.2442 15.08845676 93287,6917.863,95.437,540.59,538.866,0.0
54074.0,STARLINK-5192,PAYLOAD,2024-06-28 10:32:47,15.08829976,0.0001229,53.2151,243.6602,88.7225,271.3908,3.2788e-06,-2.36e-06,0.0,0 STARLINK-5192,1 54074U 22136Z   24180.43944218 -.00000236  00000-0  32788-5 0  9999,2 54074  53.2151 243.6602 0001229  88.7225 271.3908 15.08829976 93847,6917.911,95.438,540.626,538.926,0.0
54074.0,STARLINK-5192,PAYLOAD,2024-06-29 04:02:01,15.08848822,0.0001716,53.2165,240.3849,136.2359,223.877,9.435e-05,1.214e-05,0.0,0 STARLINK-5192,1 54074U 22136Z   24181.16806795  .00001214  00000-0  94350-4 0  9995,2 54074  53.2165 240.3849 0001716 136.2359 223.8770 15.08848822 93959,6917.853,95.437,540.906,538.531,0.0
54074.0,STARLINK-5192,PAYLOAD,2024-06-29 13:34:20,15.08845038,0.0001377,53.2151,238.6034,106.8389,253.2755,0.00029207,4.364e-05,0.0,0 STARLINK-5192,1 54074U 22136Z   24181.56551403  .00004364  00000-0  29207-3 0  9999,2 54074  53.2151 238.6034 0001377 106.8389 253.2755 15.08845038 93539,6917.865,95.437,540.683,538.777,0.0
54074.0,STARLINK-5192,PAYLOAD,2024-06-30 10:14:21,15.08839779,0.0001423,53.2152,234.7392,89.0096,271.1059,0.00012097,1.638e-05,0.0,0 STARLINK-5192,1 54074U 22136Z   24182.42663740  .00001638  00000-0  12097-3 0  9993,2 54074  53.2152 234.7392 0001423  89.0096 271.1059 15.08839779 94142,6917.881,95.438,540.73,538.762,0.0
